[
    {
        "Altitude(m)": 717643.2232721178,
        "Argument of Periapsis(deg)": 0.0,
        "Eccentricity": 0.0,
        "Inclination(deg)": 45.0,
        "Latitude(deg)": -44.57605206642334,
        "Longitude(deg)": -13.497680415470361,
        "Mean Anomaly(deg)": -81.81819999999999,
        "RAAN(deg)": 165.0,
        "Satellite Name": "Constellation 1 743",
        "Satellite Number": 743,
        "Semi-Major Axis(m)": 7083131.272910544,
        "Time(s)": 0
    },
    {
        "Altitude(m)": 717639.6867978588,
        "Argument of Periapsis(deg)": 5.994800624540561e-05,
        "Eccentricity": 0.0,
        "Inclination(deg)": 45.0,
        "Latitude(deg)": -44.56749175916007,
        "Longitude(deg)": -13.41785732710288,
        "Mean Anomaly(deg)": -81.75749885975013,
        "RAAN(deg)": 164.99994341083445,
        "Satellite Name": "Constellation 1 743",
        "Satellite Number": 743,
        "Semi-Major Axis(m)": 7083131.272910544,
        "Time(s)": 1
    },
    {
        "Altitude(m)": 717636.1248097116,
        "Argument of Periapsis(deg)": 0.00011989601249081122,
        "Eccentricity": 0.0,
        "Inclination(deg)": 45.0,
        "Latitude(deg)": -44.55886979958711,
        "Longitude(deg)": -13.338058888525968,
        "Mean Anomaly(deg)": -81.69679771950027,
        "RAAN(deg)": 164.99988682166884,
        "Satellite Name": "Constellation 1 743",
        "Satellite Number": 743,
        "Semi-Major Axis(m)": 7083131.272910544,
        "Time(s)": 2
    },
    {
        "Altitude(m)": 717632.5373208044,
        "Argument of Periapsis(deg)": 0.00017984401873621686,
        "Eccentricity": 0.0,
        "Inclination(deg)": 45.0,
        "Latitude(deg)": -44.55018622399376,
        "Longitude(deg)": -13.258285261752238,
        "Mean Anomaly(deg)": -81.6360965792503,
        "RAAN(deg)": 164.99983023250329,
        "Satellite Name": "Constellation 1 743",
        "Satellite Number": 743,
        "Semi-Major Axis(m)": 7083131.272910544,
        "Time(s)": 3
    },
    {
        "Altitude(m)": 717628.9243443469,
        "Argument of Periapsis(deg)": 0.00023979202498162244,
        "Eccentricity": 0.0,
        "Inclination(deg)": 45.0,
        "Latitude(deg)": -44.54144106890148,
        "Longitude(deg)": -13.178536608383359,
        "Mean Anomaly(deg)": -81.57539543900043,
        "RAAN(deg)": 164.9997736433377,
        "Satellite Name": "Constellation 1 743",
        "Satellite Number": 743,
        "Semi-Major Axis(m)": 7083131.272910544,
        "Time(s)": 4
    },
    {
        "Altitude(m)": 717625.2858936541,
        "Argument of Periapsis(deg)": 0.00029974003122702807,
        "Eccentricity": 0.0,
        "Inclination(deg)": 45.0,
        "Latitude(deg)": -44.5326343710631,
        "Longitude(deg)": -13.098813089607303,
        "Mean Anomaly(deg)": -81.51469429875047,
        "RAAN(deg)": 164.99971705417215,
        "Satellite Name": "Constellation 1 743",
        "Satellite Number": 743,
        "Semi-Major Axis(m)": 7083131.272910544,
        "Time(s)": 5
    },
    {
        "Altitude(m)": 717621.6219821277,
        "Argument of Periapsis(deg)": 0.00035968803747243373,
        "Eccentricity": 0.0,
        "Inclination(deg)": 45.0,
        "Latitude(deg)": -44.523766167462185,
        "Longitude(deg)": -13.019114866197047,
        "Mean Anomaly(deg)": -81.45399315850062,
        "RAAN(deg)": 164.99966046500657,
        "Satellite Name": "Constellation 1 743",
        "Satellite Number": 743,
        "Semi-Major Axis(m)": 7083131.272910544,
        "Time(s)": 6
    },
    {
        "Altitude(m)": 717617.9326232693,
        "Argument of Periapsis(deg)": 0.00041963604371783933,
        "Eccentricity": 0.0,
        "Inclination(deg)": 45.0,
        "Latitude(deg)": -44.514836495312515,
        "Longitude(deg)": -12.939442266604457,
        "Mean Anomaly(deg)": -81.3932920182507,
        "RAAN(deg)": 164.999603875841,
        "Satellite Name": "Constellation 1 743",
        "Satellite Number": 743,
        "Semi-Major Axis(m)": 7083131.272910544,
        "Time(s)": 7
    },
    {
        "Altitude(m)": 717614.2178306618,
        "Argument of Periapsis(deg)": 0.0004795840499632449,
        "Eccentricity": 0.0,
        "Inclination(deg)": 45.0,
        "Latitude(deg)": -44.50584539205633,
        "Longitude(deg)": -12.859795114570577,
        "Mean Anomaly(deg)": -81.3325908780008,
        "RAAN(deg)": 164.99954728667544,
        "Satellite Name": "Constellation 1 743",
        "Satellite Number": 743,
        "Semi-Major Axis(m)": 7083131.272910544,
        "Time(s)": 8
    },
    {
        "Altitude(m)": 717610.4776180026,
        "Argument of Periapsis(deg)": 0.0005395320562086505,
        "Eccentricity": 0.0,
        "Inclination(deg)": 45.0,
        "Latitude(deg)": -44.49679289536522,
        "Longitude(deg)": -12.780173737705717,
        "Mean Anomaly(deg)": -81.27188973775091,
        "RAAN(deg)": 164.99949069750988,
        "Satellite Name": "Constellation 1 743",
        "Satellite Number": 743,
        "Semi-Major Axis(m)": 7083131.272910544,
        "Time(s)": 9
    },
    {
        "Altitude(m)": 717606.7119990597,
        "Argument of Periapsis(deg)": 0.0005994800624540561,
        "Eccentricity": 0.0,
        "Inclination(deg)": 45.0,
        "Latitude(deg)": -44.487679043138385,
        "Longitude(deg)": -12.700578295099032,
        "Mean Anomaly(deg)": -81.21118859750108,
        "RAAN(deg)": 164.9994341083443,
        "Satellite Name": "Constellation 1 743",
        "Satellite Number": 743,
        "Semi-Major Axis(m)": 7083131.272910544,
        "Time(s)": 10
    },
    {
        "Altitude(m)": 717602.9209877114,
        "Argument of Periapsis(deg)": 0.0006594280686994618,
        "Eccentricity": 0.0,
        "Inclination(deg)": 45.0,
        "Latitude(deg)": -44.478503873502014,
        "Longitude(deg)": -12.621008945413092,
        "Mean Anomaly(deg)": -81.15048745725113,
        "RAAN(deg)": 164.99937751917872,
        "Satellite Name": "Constellation 1 743",
        "Satellite Number": 743,
        "Semi-Major Axis(m)": 7083131.272910544,
        "Time(s)": 11
    },
    {
        "Altitude(m)": 717599.10459792,
        "Argument of Periapsis(deg)": 0.0007193760749448675,
        "Eccentricity": 0.0,
        "Inclination(deg)": 45.0,
        "Latitude(deg)": -44.46926742480871,
        "Longitude(deg)": -12.541465846882693,
        "Mean Anomaly(deg)": -81.08978631700121,
        "RAAN(deg)": 164.99932093001314,
        "Satellite Name": "Constellation 1 743",
        "Satellite Number": 743,
        "Semi-Major Axis(m)": 7083131.272910544,
        "Time(s)": 12
    },
    {
        "Altitude(m)": 717595.2628437461,
        "Argument of Periapsis(deg)": 0.000779324081190273,
        "Eccentricity": 0.0,
        "Inclination(deg)": 45.0,
        "Latitude(deg)": -44.45996973563667,
        "Longitude(deg)": -12.461949157311931,
        "Mean Anomaly(deg)": -81.02908517675135,
        "RAAN(deg)": 164.9992643408476,
        "Satellite Name": "Constellation 1 743",
        "Satellite Number": 743,
        "Semi-Major Axis(m)": 7083131.272910544,
        "Time(s)": 13
    },
    {
        "Altitude(m)": 717591.3957393412,
        "Argument of Periapsis(deg)": 0.0008392720874356787,
        "Eccentricity": 0.0,
        "Inclination(deg)": 45.0,
        "Latitude(deg)": -44.450610844788976,
        "Longitude(deg)": -12.382459034072394,
        "Mean Anomaly(deg)": -80.96838403650145,
        "RAAN(deg)": 164.99920775168204,
        "Satellite Name": "Constellation 1 743",
        "Satellite Number": 743,
        "Semi-Major Axis(m)": 7083131.272910544,
        "Time(s)": 14
    },
    {
        "Altitude(m)": 717587.5032989522,
        "Argument of Periapsis(deg)": 0.0008992200936810842,
        "Eccentricity": 0.0,
        "Inclination(deg)": 45.0,
        "Latitude(deg)": -44.441190791293145,
        "Longitude(deg)": -12.302995802198348,
        "Mean Anomaly(deg)": -80.90768289625147,
        "RAAN(deg)": 164.99915116251643,
        "Satellite Name": "Constellation 1 743",
        "Satellite Number": 743,
        "Semi-Major Axis(m)": 7083131.272910544,
        "Time(s)": 15
    },
    {
        "Altitude(m)": 717583.5855369149,
        "Argument of Periapsis(deg)": 0.0009591680999264898,
        "Eccentricity": 0.0,
        "Inclination(deg)": 45.0,
        "Latitude(deg)": -44.431709614399196,
        "Longitude(deg)": -12.223559281996458,
        "Mean Anomaly(deg)": -80.84698175600161,
        "RAAN(deg)": 164.99909457335087,
        "Satellite Name": "Constellation 1 743",
        "Satellite Number": 743,
        "Semi-Major Axis(m)": 7083131.272910544,
        "Time(s)": 16
    },
    {
        "Altitude(m)": 717579.6424676597,
        "Argument of Periapsis(deg)": 0.0010191161061718953,
        "Eccentricity": 0.0,
        "Inclination(deg)": 45.0,
        "Latitude(deg)": -44.42216735358067,
        "Longitude(deg)": -12.144149797625742,
        "Mean Anomaly(deg)": -80.78628061575178,
        "RAAN(deg)": 164.99903798418532,
        "Satellite Name": "Constellation 1 743",
        "Satellite Number": 743,
        "Semi-Major Axis(m)": 7083131.272910544,
        "Time(s)": 17
    },
    {
        "Altitude(m)": 717575.6741057157,
        "Argument of Periapsis(deg)": 0.001079064112417301,
        "Eccentricity": 0.0,
        "Inclination(deg)": 45.0,
        "Latitude(deg)": -44.412564048532715,
        "Longitude(deg)": -12.064767504707746,
        "Mean Anomaly(deg)": -80.72557947550185,
        "RAAN(deg)": 164.99898139501974,
        "Satellite Name": "Constellation 1 743",
        "Satellite Number": 743,
        "Semi-Major Axis(m)": 7083131.272910544,
        "Time(s)": 18
    }
]